{"type": "FeatureCollection", "features": [ {"type": "Feature", "properties": {"norad_id": 40688, "name": "FENGYUN 1C DEB", "group": "fengyun-1c-debris", "lat": 57.88370516178172, "lon": 135.67796174776947, "alt_km": 902.6165758440466, "timestamp": "2025-12-27T08:36:18.672523+00:00", "meta": {"OBJECT_NAME": "FENGYUN 1C DEB", "OBJECT_ID": "1999-025EWU", "EPOCH": "2025-12-21T04:50:00.684384", "MEAN_MOTION": 13.83836101, "ECCENTRICITY": 0.014203, "INCLINATION": 98.9696, "RA_OF_ASC_NODE": 144.3746, "ARG_OF_PERICENTER": 8.7318, "MEAN_ANOMALY": 351.626, "EPHEMERIS_TYPE": 0, "CLASSIFICATION_TYPE": "U", "NORAD_CAT_ID": 40688, "ELEMENT_SET_NO": 999, "REV_AT_EPOCH": 30034, "BSTAR": 0.00031609, "MEAN_MOTION_DOT": 3.37e-06, "MEAN_MOTION_DDOT": 0}, "tle": {"line1": "1 40688U 99025EWU 25355.20139681  .00000337  00000+0  31609-3 0  9995", "line2": "2 40688  98.9696 144.3746 0142030   8.7318 351.6260 13.83836101300348"}}, "geometry": {"type": "Point", "coordinates": [135.67796174776947, 57.88370516178172]}}, {"type": "Feature", "properties": {"norad_id": 40689, "name": "FENGYUN 1C DEB", "group": "fengyun-1c-debris", "lat": -44.62584728787246, "lon": 89.33724775077522, "alt_km": 1242.8453167814268, "timestamp": "2025-12-27T08:36:18.672533+00:00", "meta": {"OBJECT_NAME": "FENGYUN 1C DEB", "OBJECT_ID": "1999-025EWV", "EPOCH": "2025-12-15T14:00:17.692704", "MEAN_MOTION": 13.64713186, "ECCENTRICITY": 0.03107205, "INCLINATION": 99.1258, "RA_OF_ASC_NODE": 267.381, "ARG_OF_PERICENTER": 93.9269, "MEAN_ANOMALY": 269.7453, "EPHEMERIS_TYPE": 0, "CLASSIFICATION_TYPE": "U", "NORAD_CAT_ID": 40689, "ELEMENT_SET_NO": 999, "REV_AT_EPOCH": 54922, "BSTAR": 0.0014500265, "MEAN_MOTION_DOT": 1.584e-05, "MEAN_MOTION_DDOT": 0}, "tle": {"line1": "1 40689U 99025EWV 25349.58353811  .00001584  00000+0  14500-2 0  9998", "line2": "2 40689  99.1258 267.3810 0310720  93.9269 269.7453 13.64713186549229"}}, "geometry": {"type": "Point", "coordinates": [89.33724775077522, -44.62584728787246]}}, {"type": "Feature", "properties": {"norad_id": 40691, "name": "FENGYUN 1C DEB", "group": "fengyun-1c-debris", "lat": -38.5485290610929, "lon": -154.06758283457123, "alt_km": 877.2065566739584, "timestamp": "2025-12-27T08:36:18.672543+00:00", "meta": {"OBJECT_NAME": "FENGYUN 1C DEB", "OBJECT_ID": "1999-025EWX", "EPOCH": "2025-12-03T08:15:02.306016", "MEAN_MOTION": 13.89944729, "ECCENTRICITY": 0.0128434, "INCLINATION": 99.0573, "RA_OF_ASC_NODE": 9.8547, "ARG_OF_PERICENTER": 336.6089, "MEAN_ANOMALY": 22.9259, "EPHEMERIS_TYPE": 0, "CLASSIFICATION_TYPE": "U", "NORAD_CAT_ID": 40691, "ELEMENT_SET_NO": 999, "REV_AT_EPOCH": 55305, "BSTAR": 0.00023937, "MEAN_MOTION_DOT": 2.71e-06, "MEAN_MOTION_DDOT": 0}, "tle": {"line1": "1 40691U 99025EWX 25337.34377669  .00000271  00000+0  23937-3 0  9996", "line2": "2 40691  99.0573   9.8547 0128434 336.6089  22.9259 13.89944729553058"}}, "geometry": {"type": "Point", "coordinates": [-154.06758283457123, -38.5485290610929]}}, {"type": "Feature", "properties": {"norad_id": 40695, "name": "FENGYUN 1C DEB", "group": "fengyun-1c-debris", "lat": -69.82898582262234, "lon": -85.54336296049692, "alt_km": 569.7149240730432, "timestamp": "2025-12-27T08:36:18.672553+00:00", "meta": {"OBJECT_NAME": "FENGYUN 1C DEB", "OBJECT_ID": "1999-025EXB", "EPOCH": "2025-12-22T14:53:14.266464", "MEAN_MOTION": 14.50985865, "ECCENTRICITY": 0.02804135, "INCLINATION": 99.4259, "RA_OF_ASC_NODE": 116.031, "ARG_OF_PERICENTER": 303.6454, "MEAN_ANOMALY": 53.8273, "EPHEMERIS_TYPE": 0, "CLASSIFICATION_TYPE": "U", "NORAD_CAT_ID": 40695, "ELEMENT_SET_NO": 999, "REV_AT_EPOCH": 32009, "BSTAR": 0.00019428885, "MEAN_MOTION_DOT": 1.201e-05, "MEAN_MOTION_DDOT": 0}, "tle": {"line1": "1 40695U 99025EXB 25356.62030401  .00001201  00000+0  19429-3 0  9997", "line2": "2 40695  99.4259 116.0310 0280413 303.6454  53.8273 14.50985865320092"}}, "geometry": {"type": "Point", "coordinates": [-85.54336296049692, -69.82898582262234]}}, {"type": "Feature", "properties": {"norad_id": 40696, "name": "FENGYUN 1C DEB", "group": "fengyun-1c-debris", "lat": 14.896390595808995, "lon": 170.14009395083997, "alt_km": 956.9763113410781, "timestamp": "2025-12-27T08:36:18.672564+00:00", "meta": {"OBJECT_NAME": "FENGYUN 1C DEB", "OBJECT_ID": "1999-025EXC", "EPOCH": "2025-12-26T16:20:27.303648", "MEAN_MOTION": 13.96750359, "ECCENTRICITY": 0.00793327, "INCLINATION": 98.9581, "RA_OF_ASC_NODE": 347.0754, "ARG_OF_PERICENTER": 319.1594, "MEAN_ANOMALY": 40.3641, "EPHEMERIS_TYPE": 0, "CLASSIFICATION_TYPE": "U", "NORAD_CAT_ID": 40696, "ELEMENT_SET_NO": 999, "REV_AT_EPOCH": 55874, "BSTAR": 0.00036458754, "MEAN_MOTION_DOT": 4.76e-06, "MEAN_MOTION_DDOT": 0}, "tle": {"line1": "1 40696U 99025EXC 25360.68087157  .00000476  00000+0  36459-3 0  9994", "line2": "2 40696  98.9581 347.0754 0079332 319.1594  40.3641 13.96750359558748"}}, "geometry": {"type": "Point", "coordinates": [170.14009395083997, 14.896390595808995]}}, {"type": "Feature", "properties": {"norad_id": 41003, "name": "FENGYUN 1C DEB", "group": "fengyun-1c-debris", "lat": 60.21226178537202, "lon": 117.9972454608675, "alt_km": 672.47469583974, "timestamp": "2025-12-27T08:36:18.672574+00:00", "meta": {"OBJECT_NAME": "FENGYUN 1C DEB", "OBJECT_ID": "1999-025EXH", "EPOCH": "2025-12-26T12:30:25.047936", "MEAN_MOTION": 14.73506426, "ECCENTRICITY": 0.0067722, "INCLINATION": 98.9659, "RA_OF_ASC_NODE": 281.0623, "ARG_OF_PERICENTER": 248.3299, "MEAN_ANOMALY": 111.0684, "EPHEMERIS_TYPE": 0, "CLASSIFICATION_TYPE": "U", "NORAD_CAT_ID": 41003, "ELEMENT_SET_NO": 999, "REV_AT_EPOCH": 52623, "BSTAR": 0.0042088, "MEAN_MOTION_DOT": 0.00028413, "MEAN_MOTION_DDOT": 0}, "tle": {"line1": "1 41003U 99025EXH 25360.52112324  .00028413  00000+0  42088-2 0  9990", "line2": "2 41003  98.9659 281.0623 0067722 248.3299 111.0684 14.73506426526236"}}, "geometry": {"type": "Point", "coordinates": [117.9972454608675, 60.21226178537202]}}, {"type": "Feature", "properties": {"norad_id": 41006, "name": "FENGYUN 1C DEB", "group": "fengyun-1c-debris", "lat": 66.836325225221, "lon": -154.0870096808086, "alt_km": 949.9876527575179, "timestamp": "2025-12-27T08:36:18.672583+00:00", "meta": {"OBJECT_NAME": "FENGYUN 1C DEB", "OBJECT_ID": "1999-025EXL", "EPOCH": "2025-12-19T21:45:46.059840", "MEAN_MOTION": 13.85407302, "ECCENTRICITY": 0.0190575, "INCLINATION": 102.3676, "RA_OF_ASC_NODE": 226.9637, "ARG_OF_PERICENTER": 351.9089, "MEAN_ANOMALY": 7.8995, "EPHEMERIS_TYPE": 0, "CLASSIFICATION_TYPE": "U", "NORAD_CAT_ID": 41006, "ELEMENT_SET_NO": 999, "REV_AT_EPOCH": 57588, "BSTAR": 0.0020631, "MEAN_MOTION_DOT": 2.639e-05, "MEAN_MOTION_DDOT": 0}, "tle": {"line1": "1 41006U 99025EXL 25353.90678310  .00002639  00000+0  20631-2 0  9991", "line2": "2 41006 102.3676 226.9637 0190575 351.9089   7.8995 13.85407302575889"}}, "geometry": {"type": "Point", "coordinates": [-154.0870096808086, 66.836325225221]}}, {"type": "Feature", "properties": {"norad_id": 41007, "name": "FENGYUN 1C DEB", "group": "fengyun-1c-debris", "lat": -76.6192429469492, "lon": 76.76915868827541, "alt_km": 941.8158350012518, "timestamp": "2025-12-27T08:36:18.672593+00:00", "meta": {"OBJECT_NAME": "FENGYUN 1C DEB", "OBJECT_ID": "1999-025EXM", "EPOCH": "2025-11-29T06:55:22.773792", "MEAN_MOTION": 13.85678237, "ECCENTRICITY": 0.01723955, "INCLINATION": 99.9731, "RA_OF_ASC_NODE": 359.205, "ARG_OF_PERICENTER": 79.2855, "MEAN_ANOMALY": 282.7657, "EPHEMERIS_TYPE": 0, "CLASSIFICATION_TYPE": "U", "NORAD_CAT_ID": 41007, "ELEMENT_SET_NO": 999, "REV_AT_EPOCH": 57212, "BSTAR": 0.0017167305, "MEAN_MOTION_DOT": 2.158e-05, "MEAN_MOTION_DDOT": 0}, "tle": {"line1": "1 41007U 99025EXM 25333.28845803  .00002158  00000+0  17167-2 0  9990", "line2": "2 41007  99.9731 359.2050 0172395  79.2855 282.7657 13.85678237572123"}}, "geometry": {"type": "Point", "coordinates": [76.76915868827541, -76.6192429469492]}}, {"type": "Feature", "properties": {"norad_id": 41011, "name": "FENGYUN 1C DEB", "group": "fengyun-1c-debris", "lat": -6.580402169681754, "lon": -133.57248242874226, "alt_km": 884.9733303130397, "timestamp": "2025-12-27T08:36:18.672603+00:00", "meta": {"OBJECT_NAME": "FENGYUN 1C DEB", "OBJECT_ID": "1999-025EXR", "EPOCH": "2025-12-23T20:30:46.247616", "MEAN_MOTION": 14.42971366, "ECCENTRICITY": 0.0309356, "INCLINATION": 99.1668, "RA_OF_ASC_NODE": 43.7219, "ARG_OF_PERICENTER": 325.2752, "MEAN_ANOMALY": 32.8581, "EPHEMERIS_TYPE": 0, "CLASSIFICATION_TYPE": "U", "NORAD_CAT_ID": 41011, "ELEMENT_SET_NO": 999, "REV_AT_EPOCH": 57317, "BSTAR": 0.00060457, "MEAN_MOTION_DOT": 3.552e-05, "MEAN_MOTION_DDOT": 0}, "tle": {"line1": "1 41011U 99025EXR 25357.85470194  .00003552  00000+0  60457-3 0  9991", "line2": "2 41011  99.1668  43.7219 0309356 325.2752  32.8581 14.42971366573179"}}, "geometry": {"type": "Point", "coordinates": [-133.57248242874226, -6.580402169681754]}}, {"type": "Feature", "properties": {"norad_id": 41018, "name": "FENGYUN 1C DEB", "group": "fengyun-1c-debris", "lat": 72.34818594250375, "lon": -87.63676793015217, "alt_km": 831.0924335652062, "timestamp": "2025-12-27T08:36:18.672614+00:00", "meta": {"OBJECT_NAME": "FENGYUN 1C DEB", "OBJECT_ID": "1999-025EXY", "EPOCH": "2025-12-15T01:30:35.121600", "MEAN_MOTION": 13.52371588, "ECCENTRICITY": 0.03049079, "INCLINATION": 99.9356, "RA_OF_ASC_NODE": 293.4577, "ARG_OF_PERICENTER": 112.862, "MEAN_ANOMALY": 250.5013, "EPHEMERIS_TYPE": 0, "CLASSIFICATION_TYPE": "U", "NORAD_CAT_ID": 41018, "ELEMENT_SET_NO": 999, "REV_AT_EPOCH": 88206, "BSTAR": 0.0022149287, "MEAN_MOTION_DOT": 1.917e-05, "MEAN_MOTION_DDOT": 0}, "tle": {"line1": "1 41018U 99025EXY 25349.06290650  .00001917  00000+0  22149-2 0  9997", "line2": "2 41018  99.9356 293.4577 0304907 112.8620 250.5013 13.52371588882060"}}, "geometry": {"type": "Point", "coordinates": [-87.63676793015217, 72.34818594250375]}}]}